IRIDIUM 154             
1 43574U 18061F   26169.41766618  .00000123  00000+0  36938-4 0  9990
2 43574  86.3960  56.2923 0002169  88.2649 271.8795 14.34216845413587
IRIDIUM 163             
1 43575U 18061G   26169.60794354  .00000043  00000+0  84270-5 0  9994
2 43575  86.3958  56.1281 0002233  83.7013 276.4437 14.34216514413585
IRIDIUM 156             
1 43576U 18061H   26169.16396604  .00000210  00000+0  67875-4 0  9999
2 43576  86.3960  56.3211 0002068  82.8244 277.3187 14.34215588413511
IRIDIUM 164             
1 43577U 18061J   26169.42400964  .00000189  00000+0  60328-4 0  9995
2 43577  86.3960  56.2527 0002167  89.4984 270.6460 14.34217495413592
IRIDIUM 159             
1 43578U 18061K   26169.60160326  .00000039  00000+0  68093-5 0  9993
2 43578  86.3959  56.1152 0002274  83.7520 276.3935 14.34217629413584
IRIDIUM 180             
1 43922U 19002A   26169.60109832  .00000152  00000+0  47348-4 0  9992
2 43922  86.3971 353.0062 0002256  89.2124 270.9330 14.34217568389191
IRIDIUM 176             
1 43923U 19002B   26169.51827463  .00000597  00000+0  90779-4 0  9999
2 43923  86.6091 352.9842 0002309  93.0519 267.0962 14.72268563399442
IRIDIUM 168             
1 43924U 19002C   26169.52498377  .00000130  00000+0  39520-4 0  9999
2 43924  86.3974 353.1155 0002192  89.7901 270.3546 14.34219338389164
IRIDIUM 173             
1 43925U 19002D   26169.44253402  .00000151  00000+0  46969-4 0  9997
2 43925  86.3968 353.0388 0002180  87.2268 272.9177 14.34217141389136
IRIDIUM 169             
1 43926U 19002E   26169.29557982  .00000218  00000+0  64853-4 0  9997
2 43926  86.4223  24.7299 0001813  73.4393 286.7004 14.38609452390388
IRIDIUM 172             
1 43927U 19002F   26169.50595688  .00000159  00000+0  49824-4 0  9992
2 43927  86.3970 353.0202 0002256  88.5995 271.5459 14.34219038389158
IRIDIUM 175             
1 43928U 19002G   26169.59282637  .00000267  00000+0  72832-4 0  9994
2 43928  86.4514 289.9332 0002685 174.8560 185.2669 14.43613386399180
IRIDIUM 171             
1 43929U 19002H   26169.48693177 -.00000036  00000+0 -20091-4 0  9994
2 43929  86.3975 353.3344 0001942  91.3210 268.8209 14.34217347389140
IRIDIUM 170             
1 43930U 19002J   26169.04868592  .00000610  00000+0  92773-4 0  9995
2 43930  86.6091 353.1830 0002356  89.3305 270.8182 14.72268543399380
IRIDIUM 167             
1 43931U 19002K   26169.48058880  .00000012  00000+0 -26088-5 0  9999
2 43931  86.3966 353.0532 0001778  92.7104 267.4296 14.34217549389148
IRIDIUM 181             
1 56726U 23068S   26169.42370849  .00000260  00000+0  71353-4 0  9996
2 56726  86.4497  56.2737 0002349  88.1580 271.9890 14.43313046162615
IRIDIUM 177             
1 56727U 23068T   26169.40420701  .00000506  00000+0  63133-4 0  9998
2 56727  86.1965 328.2134 0002355  88.5696 271.5795 14.80226116166543
IRIDIUM 174             
1 56728U 23068U   26169.51212129  .00000614  00000+0  93432-4 0  9999
2 56728  86.6098 353.1367 0002452  84.2305 275.9192 14.72265443166219
IRIDIUM 178             
1 56729U 23068V   26169.32573303  .00000776  00000+0  98683-4 0  9995
2 56729  86.6536  24.8843 0002626  85.7033 274.4489 14.80235548166535
IRIDIUM 179             
1 56730U 23068W   26169.11753129  .00000725  00000+0  91909-4 0  9998
2 56730  86.6774  33.9542 0002465  88.3996 271.7508 14.80232457166501
